LEASAT 5                
1 20410U 90002B   14346.78037575 -.00000073  00000-0  10000-3 0  3010
2 20410  11.0933  19.7386 0004614 207.9222 206.6941  1.00273195 76536
INTELSAT 603 (IS-603)   
1 20523U 90021A   14346.27148197 -.00000236  00000-0  00000+0 0  6405
2 20523  10.5053  43.4749 0005489 170.1291 244.4914  1.00275803 83539
INTELSAT 701 (IS-701)   
1 22871U 93066A   14346.11428412 -.00000212  00000-0  00000+0 0  5659
2 22871   2.4225  72.2815 0004092 188.6226 191.4854  1.00272325 77277
INTELSAT 702 (IS-702)   
1 23124U 94034A   14346.10091532  .00000156  00000-0  10000-3 0  3834
2 23124   2.7676  70.7413 0003942 201.2809 237.9317  1.00273207 89218
INTELSAT 706 (IS-706)   
1 23571U 95023A   14346.53897829 -.00000036  00000-0  10000-3 0  2162
2 23571   2.6949  69.2094 0003527 157.2382 142.3685  0.99050313 71631
INTELSAT 26 (IS-26)     
1 24732U 97007A   14346.85787522 -.00000002  00000-0  00000+0 0  8556
2 24732   5.9297  57.4486 0005468 212.6553 185.9906  1.00273727 65168
GALAXY 25 (G-25)        
1 24812U 97026A   14344.47920001 -.00000164  00000-0  00000+0 0  9597
2 24812   0.0085   7.1489 0002717 258.2297 253.1746  1.00272350 64214
INTELSAT 5 (IS-5)       
1 24916U 97046A   14346.75566203 -.00000135  00000-0  00000+0 0   350
2 24916   1.7307  75.9279 0002064 188.1065 246.3763  1.00272593 63472
INTELSAT 805 (IS-805)   
1 25371U 98037A   14346.27665640 -.00000283  00000-0  10000-3 0  5319
2 25371   0.0152 330.6726 0003336 302.3216 211.9963  1.00270740 60409
INTELSAT 7 (IS-7)       
1 25473U 98052A   14346.22384692 -.00000140  00000-0  00000+0 0  1110
2 25473   1.3123  79.0773 0006585 207.5789 216.6041  1.00271570 59487
AFRISTAR                
1 25515U 98063A   14346.85439307  .00000131  00000-0  00000+0 0  6396
2 25515   1.7019  72.8032 0004816 180.3983 156.8322  1.00273644 59021
INTELSAT 8 (IS-8)       
1 25522U 98065A   14345.58224427 -.00000030  00000-0  00000+0 0  8403
2 25522   0.0286 267.7104 0003182 337.7782 213.3256  1.00272363 58999
GALAXY 26 (G-26)        
1 25626U 99005A   14346.59905728 -.00000276  00000-0  00000+0 0  6089
2 25626   2.8946  84.9998 0002867 106.1930 249.5271  0.98999784 57940
GALAXY 27 (G-27)        
1 25922U 99052A   14346.84684019 -.00000000  00000-0  10000-3 0  6692
2 25922   1.3867  77.8078 0004358 185.1810 189.5373  1.00272274 55739
DIRECTV 1R              
1 25937U 99056A   14344.74403278  .00000000  00000-0  10000-3 0  9349
2 25937   1.9819  73.9425 0005441 143.9973 215.4001  0.98954379 55553
GALAXY 11 (G-11)        
1 26038U 99071A   14346.18551541 -.00000283  00000-0  10000-3 0   396
2 26038   0.0584 256.4516 0001020  30.1625 165.3896  1.00269739 54944
SIRIUS-1                
1 26390U 00035A   14345.37001968  .00000000  00000-0  00000+0 0  4195
2 26390  59.9170 238.2027 2689508 270.2225 329.1111  1.00278483 52924
INTELSAT 9 (IS-9)       
1 26451U 00043A   14345.25325319 -.00000269  00000-0  10000-3 0  4393
2 26451   1.7128  76.2004 0003426 184.6959 227.0560  1.00273938 52670
SIRIUS-2                
1 26483U 00051A   14346.34319256  .00000062  00000-0  00000+0 0   381
2 26483  64.2819 117.9252 2715896 268.3755  84.2029  1.00276421 52270
INTELSAT 12 (IS-12)     
1 26590U 00068A   14344.90160626  .00000136  00000-0  00000+0 0  3658
2 26590   0.0382  50.5096 0003554 205.8536 192.7543  1.00273276 51698
INTELSAT 1R (IS-1R)     
1 26608U 00072A   14345.29307578 -.00000282  00000-0  00000+0 0  9946
2 26608   0.0385 196.0107 0000324 249.0828  50.3687  1.00272936 51517
SIRIUS-3                
1 26626U 00077A   14345.25072568 -.00000136  00000-0  00000+0 0  3914
2 26626  64.5097 357.8393 2691137 269.7810 166.8082  1.00273039 51399
XM-2 (ROCK)             
1 26724U 01012A   14345.47519328 -.00000144  00000-0  00000+0 0  9833
2 26724   0.2537  64.3762 0002723 252.5620  43.0515  0.99079854 50367
XM-1 (ROLL)             
1 26761U 01018A   14346.53430470 -.00000020  00000-0  10000-3 0  8666
2 26761   0.1445 250.6545 0003212 332.7269 294.8993  1.00272923 49862
INTELSAT 10 (IS-10)     
1 26766U 01019A   14346.85425819  .00000131  00000-0  00000+0 0  7046
2 26766   0.0134 308.9405 0002494 323.0865 164.4859  1.00273519 49774
INTELSAT 901 (IS-901)   
1 26824U 01024A   14345.28869373 -.00000140  00000-0  00000+0 0  4611
2 26824   0.0155 336.6057 0003800 283.8715 265.3756  1.00271440 49499
INTELSAT 902 (IS-902)   
1 26900U 01039A   14343.88290934  .00000030  00000-0  00000+0 0  4445
2 26900   0.0048 314.4602 0003331 297.1705 206.7648  1.00273147 48619
DIRECTV 4S              
1 26985U 01052A   14346.11416802 -.00000111  00000-0  00000+0 0  4829
2 26985   0.0099 279.5609 0003074 355.6421 105.4248  1.00271129 47837
INTELSAT 904 (IS-904)   
1 27380U 02007A   14346.15133326  .00000051  00000-0  10000-3 0  5908
2 27380   0.0194 340.8049 0003366 276.8712 297.5806  1.00272641 46937
INTELSAT 903 (IS-903)   
1 27403U 02016A   14344.40053457 -.00000240  00000-0  00000+0 0  1593
2 27403   0.0152 340.7987 0003442 269.2702 298.6654  1.00270768 46512
DIRECTV 5 (TEMPO 1)     
1 27426U 02023A   14346.14057962 -.00000054  00000-0  10000-3 0  6160
2 27426   0.0061 316.4321 0003570 299.1137 125.7094  1.00272251 46162
INTELSAT 905 (IS-905)   
1 27438U 02027A   14346.11368223 -.00000182  00000-0  00000+0 0  9945
2 27438   0.0252 298.2158 0003190 298.1654 220.7867  1.00271332 45840
GALAXY 3C (G-3C)        
1 27445U 02030A   14346.41942946 -.00000148  00000-0  10000-3 0  2052
2 27445   0.0093 348.2003 0001659   9.0624 139.7273  1.00271051 45792
INTELSAT 906 (IS-906)   
1 27513U 02041A   14346.86305745  .00000019  00000-0  00000+0 0  2511
2 27513   0.0147 342.9317 0002730 267.7444 205.6501  1.00272423 44937
INTELSAT 907 (IS-907)   
1 27683U 03007A   14345.15762677 -.00000202  00000-0  00000+0 0  7738
2 27683   0.0061 359.4509 0003308 259.7829 209.7977  1.00270729 43271
GALAXY 12 (G-12)        
1 27715U 03013B   14346.53914972  .00000062  00000-0  10000-3 0  1340
2 27715   0.0018 289.0367 0002366 319.0669 258.1524  1.00273124 42844
GALAXY 23 (G-23)        
1 27854U 03034A   14345.54184542  .00000014  00000-0  00000+0 0   632
2 27854   0.0124  18.7126 0003301 236.0365 259.4992  1.00272501 41487
GALAXY 13 (HORIZONS-1)  
1 27954U 03044A   14345.43099076  .00000048  00000-0  00000+0 0  9578
2 27954   0.0015 321.5295 0001908 300.1180 206.5587  1.00272970 41054
DIRECTV 7S              
1 28238U 04016A   14346.40771478  .00000004  00000-0  00000+0 0  1906
2 28238   0.0227  10.3710 0003016 251.8253 206.5484  1.00273009 38927
INTELSAT 10-02          
1 28358U 04022A   14346.09077994 -.00000008  00000-0  10000-3 0  9709
2 28358   0.0075 279.4403 0000991 344.8172 208.1764  1.00273027 38468
XM-3 (RHYTHM)           
1 28626U 05008A   14346.53093257 -.00000203  00000-0  10000-3 0  7852
2 28626   0.0072 223.1147 0000289   1.4436 322.6562  1.00271875 35906
SPACEWAY 1              
1 28644U 05015A   14346.57412183 -.00000099  00000-0  00000+0 0   588
2 28644   0.0447 168.8799 0000238  76.3819 299.6979  1.00271704 35355
DIRECTV 8               
1 28659U 05019A   14346.13058251 -.00000113  00000-0  00000+0 0  1186
2 28659   0.0137  13.4191 0003504 243.4784 130.0202  1.00272674 35023
GALAXY 28 (G-28)        
1 28702U 05022A   14344.51938972 -.00000186  00000-0  00000+0 0  8521
2 28702   0.0082 345.7118 0000773 220.3508 331.0716  1.00270621 34701
GALAXY 14 (G-14)        
1 28790U 05030A   14345.23073600  .00000036  00000-0  10000-3 0  9186
2 28790   0.0197 323.7935 0002814 287.7649 146.3883  1.00274531 34132
GALAXY 15 (G-15)        
1 28884U 05041A   14343.41338911  .00000076  00000-0  00000+0 0  8705
2 28884   0.0111 357.7604 0001783 282.9667 173.1736  1.00269819 33488
SPACEWAY 2              
1 28903U 05046B   14346.04351205 -.00000124  00000-0  00000+0 0  8935
2 28903   0.0270 162.9502 0000406  41.0979 153.1640  1.00272105 33327
GALAXY 16 (G-16)        
1 29236U 06023A   14345.30578869 -.00000127  00000-0  10000-3 0  8912
2 29236   0.0358  87.8459 0003126 164.6554 198.5120  1.00271782 31091
DIRECTV 9S              
1 29494U 06043A   14346.58525073 -.00000111  00000-0  00000+0 0  7782
2 29494   0.0077 282.4631 0003596 331.7917 296.5399  1.00271786 29943
XM-4 (BLUES)            
1 29520U 06049A   14345.31371715  .00000000  00000-0  10000-3 0  4069
2 29520   0.0464 105.7867 0000444 169.8018 162.1127  1.00271064 29836
GALAXY 17 (G-17)        
1 31307U 07016B   14345.38638184 -.00000174  00000-0  00000+0 0  5332
2 31307   0.0177   6.1392 0003484 252.6609 229.3309  1.00272335 27900
DIRECTV 10              
1 31862U 07032A   14346.12050909 -.00000101  00000-0  10000-3 0  5821
2 31862   0.0324 145.6898 0000191  43.7162 191.9299  1.00272717 27248
SPACEWAY 3              
1 32018U 07036A   14346.62188659 -.00000148  00000-0  10000-3 0  4716
2 32018   0.0284 143.1051 0000338  69.5925 357.4785  1.00272541 26969
INTELSAT 11 (IS-11)     
1 32253U 07044B   14344.17681503 -.00000271  00000-0  10000-3 0  2726
2 32253   0.0149 276.1824 0003122 337.7950 205.5044  1.00270730 26348
HORIZONS-2              
1 32388U 07063B   14344.65843307  .00000000  00000-0  10000-3 0  4474
2 32388   0.0332  76.9788 0003426 127.0310 197.1646  1.00266234 25700
DIRECTV 11              
1 32729U 08013A   14345.39402666 -.00000125  00000-0  00000+0 0  5217
2 32729   0.0240 153.4726 0000259  41.2740 287.9108  1.00272311 24764
GALAXY 18 (G-18)        
1 32951U 08024A   14346.16525712  .00000027  00000-0  00000+0 0  1531
2 32951   0.0031  13.1603 0003230 240.4403 123.6797  1.00272877 23997
INTELSAT 25 (IS-25)     
1 33153U 08034A   14346.12881525 -.00000221  00000-0  00000+0 0  1908
2 33153   0.0119 343.0619 0002904 256.6271 215.9553  1.00272691 23540
GALAXY 19 (G-19)        
1 33376U 08045A   14346.23111690 -.00000137  00000-0  00000+0 0  2185
2 33376   0.0233 275.7710 0003147 343.1103 168.1798  1.00272634 22752
